*******************************************************************************
Ephemeris / WWW_USER Fri Mar  7 10:19:03 2025 Pasadena, USA      / Horizons    
*******************************************************************************
Target body name: (2018 PK21)                     {source: JPL#33}
Center body name: Earth (399)                     {source: DE441}
Center-site name: Mauna Kea
*******************************************************************************
Start time      : A.D. 2018-Oct-10 04:12:00.0000 UT      
Stop  time      : A.D. 2018-Oct-10 16:05:00.0000 UT      
Step-size       : 1 minutes
*******************************************************************************
Target pole/equ : undefined
Target radii    : undefined                                                    
Center geodetic : 204.5278, 19.8260847, 4.21024   {E-lon(deg),Lat(deg),Alt(km)}
Center cylindric: 204.5278, 6006.35451, 2151.0229 {E-lon(deg),Dxy(km),Dz(km)}
Center pole/equ : ITRF93                          {East-longitude positive}
Center radii    : 6378.137, 6378.137, 6356.752 km {Equator_a, b, pole_c}       
Target primary  : Sun
Vis. interferer : MOON (R_eq= 1737.400) km        {source: DE441}
Rel. light bend : Sun                             {source: DE441}
Rel. lght bnd GM: 1.3271E+11 km^3/s^2                                          
Small-body perts: Yes                             {source: SB441-N16}
Atmos refraction: NO (AIRLESS)
RA format       : HMS
Time format     : CAL 
Calendar mode   : Mixed Julian/Gregorian
RTS-only print  : NO       
EOP file        : eop.250306.p250602                                           
EOP coverage    : DATA-BASED 1962-JAN-20 TO 2025-MAR-06. PREDICTS-> 2025-JUN-01
Units conversion: 1 au= 149597870.700 km, c= 299792.458 km/s, 1 day= 86400.0 s 
Table cut-offs 1: Elevation (-90.0deg=NO ),Airmass (>38.000=NO), Daylight (YES)
Table cut-offs 2: Solar elongation (  0.0,180.0=NO ),Local Hour Angle( 0.0=NO )
Table cut-offs 3: RA/DEC angular rate (     0.0=NO )                           
*******************************************************************************
Initial IAU76/J2000 heliocentric ecliptic osculating elements (au, days, deg.):
  EPOCH=  2458678.5 ! 2019-Jul-14.00 (TDB)         Residual RMS= .18538        
   EC= .08059571149071894  QR= .9080173735553244   TP= 2458556.3979336754      
   OM= 305.3714803879685   W=  224.0867446587677   IN= 1.196977749955446       
  Equivalent ICRF heliocentric cartesian coordinates (au, au/d):
   X= 5.084898226316541E-01  Y=-8.259633024476691E-01  Z=-3.605371187528673E-01
  VX= 1.486595997640644E-02 VY= 6.429710771461657E-03 VZ= 3.158008025433540E-03
Asteroid physical parameters (km, seconds, rotational period in hours):        
   GM= n.a.                RAD= n.a.               ROTPER= n.a.                
   H= 25.88                G= .150                 B-V= n.a.                   
                           ALBEDO= n.a.            STYP= n.a.                  
*******************************************************************************
 Date__(UT)__HR:MN     R.A._________(ICRF)_________DEC
******************************************************
$$SOE
 2018-Oct-10 04:12 Cm  20 56 55.626832 -07 25 33.01673
 2018-Oct-10 04:13 Cm  20 56 55.664381 -07 25 32.97991
 2018-Oct-10 04:14 Cm  20 56 55.701892 -07 25 32.94294
 2018-Oct-10 04:15 Cm  20 56 55.739364 -07 25 32.90582
 2018-Oct-10 04:16 Cm  20 56 55.776798 -07 25 32.86854
 2018-Oct-10 04:17 Cm  20 56 55.814193 -07 25 32.83111
 2018-Oct-10 04:18 Cm  20 56 55.851551 -07 25 32.79353
 2018-Oct-10 04:19 Cm  20 56 55.888872 -07 25 32.75578
 2018-Oct-10 04:20 Cm  20 56 55.926155 -07 25 32.71789
 2018-Oct-10 04:21 Cm  20 56 55.963402 -07 25 32.67983
 2018-Oct-10 04:22 Cm  20 56 56.000613 -07 25 32.64162
 2018-Oct-10 04:23 Cm  20 56 56.037787 -07 25 32.60326
 2018-Oct-10 04:24 Cm  20 56 56.074926 -07 25 32.56473
 2018-Oct-10 04:25 Cm  20 56 56.112030 -07 25 32.52605
 2018-Oct-10 04:26 Nm  20 56 56.149099 -07 25 32.48722
 2018-Oct-10 04:27 Nm  20 56 56.186133 -07 25 32.44822
 2018-Oct-10 04:28 Nm  20 56 56.223133 -07 25 32.40907
 2018-Oct-10 04:29 Nm  20 56 56.260099 -07 25 32.36976
 2018-Oct-10 04:30 Nm  20 56 56.297031 -07 25 32.33029
 2018-Oct-10 04:31 Nm  20 56 56.333931 -07 25 32.29066
 2018-Oct-10 04:32 Nm  20 56 56.370797 -07 25 32.25088
 2018-Oct-10 04:33 Nm  20 56 56.407631 -07 25 32.21093
 2018-Oct-10 04:34 Nm  20 56 56.444433 -07 25 32.17082
 2018-Oct-10 04:35 Nm  20 56 56.481203 -07 25 32.13056
 2018-Oct-10 04:36 Nm  20 56 56.517941 -07 25 32.09013
 2018-Oct-10 04:37 Nm  20 56 56.554648 -07 25 32.04955
 2018-Oct-10 04:38 Nm  20 56 56.591325 -07 25 32.00880
 2018-Oct-10 04:39 Nm  20 56 56.627971 -07 25 31.96789
 2018-Oct-10 04:40 Nm  20 56 56.664587 -07 25 31.92682
 2018-Oct-10 04:41 Nm  20 56 56.701174 -07 25 31.88559
 2018-Oct-10 04:42 Nm  20 56 56.737731 -07 25 31.84420
 2018-Oct-10 04:43 Nm  20 56 56.774259 -07 25 31.80265
 2018-Oct-10 04:44 Nm  20 56 56.810759 -07 25 31.76093
 2018-Oct-10 04:45 Nm  20 56 56.847230 -07 25 31.71905
 2018-Oct-10 04:46 Nm  20 56 56.883673 -07 25 31.67701
 2018-Oct-10 04:47 Nm  20 56 56.920089 -07 25 31.63481
 2018-Oct-10 04:48 Nm  20 56 56.956478 -07 25 31.59244
 2018-Oct-10 04:49 Nm  20 56 56.992840 -07 25 31.54991
 2018-Oct-10 04:50 Nm  20 56 57.029175 -07 25 31.50722
 2018-Oct-10 04:51 Am  20 56 57.065484 -07 25 31.46436
 2018-Oct-10 04:52 Am  20 56 57.101767 -07 25 31.42134
 2018-Oct-10 04:53 Am  20 56 57.138025 -07 25 31.37815
 2018-Oct-10 04:54 Am  20 56 57.174258 -07 25 31.33480
 2018-Oct-10 04:55 Am  20 56 57.210467 -07 25 31.29129
 2018-Oct-10 04:56 Am  20 56 57.246651 -07 25 31.24761
 2018-Oct-10 04:57 Am  20 56 57.282811 -07 25 31.20377
 2018-Oct-10 04:58 Am  20 56 57.318947 -07 25 31.15976
 2018-Oct-10 04:59 Am  20 56 57.355061 -07 25 31.11558
 2018-Oct-10 05:00 Am  20 56 57.391151 -07 25 31.07124
 2018-Oct-10 05:01 Am  20 56 57.427219 -07 25 31.02674
 2018-Oct-10 05:02 Am  20 56 57.463265 -07 25 30.98206
 2018-Oct-10 05:03 Am  20 56 57.499289 -07 25 30.93723
 2018-Oct-10 05:04 Am  20 56 57.535292 -07 25 30.89222
 2018-Oct-10 05:05 Am  20 56 57.571273 -07 25 30.84705
 2018-Oct-10 05:06 A   20 56 57.607234 -07 25 30.80171
 2018-Oct-10 05:07 A   20 56 57.643175 -07 25 30.75621
 2018-Oct-10 05:08 A   20 56 57.679096 -07 25 30.71054
 2018-Oct-10 05:09 A   20 56 57.714997 -07 25 30.66470
 2018-Oct-10 05:10 A   20 56 57.750879 -07 25 30.61869
 2018-Oct-10 05:11 A   20 56 57.786742 -07 25 30.57252
 2018-Oct-10 05:12 A   20 56 57.822587 -07 25 30.52617
 2018-Oct-10 05:13 A   20 56 57.858413 -07 25 30.47967
 2018-Oct-10 05:14 A   20 56 57.894222 -07 25 30.43299
 2018-Oct-10 05:15 A   20 56 57.930014 -07 25 30.38614
 2018-Oct-10 05:16 A   20 56 57.965789 -07 25 30.33913
 2018-Oct-10 05:17     20 56 58.001547 -07 25 30.29195
 2018-Oct-10 05:18     20 56 58.037289 -07 25 30.24460
 2018-Oct-10 05:19     20 56 58.073015 -07 25 30.19708
 2018-Oct-10 05:20     20 56 58.108725 -07 25 30.14939
 2018-Oct-10 05:21     20 56 58.144420 -07 25 30.10153
 2018-Oct-10 05:22     20 56 58.180101 -07 25 30.05350
 2018-Oct-10 05:23     20 56 58.215767 -07 25 30.00531
 2018-Oct-10 05:24     20 56 58.251420 -07 25 29.95694
 2018-Oct-10 05:25     20 56 58.287058 -07 25 29.90841
 2018-Oct-10 05:26     20 56 58.322684 -07 25 29.85971
 2018-Oct-10 05:27     20 56 58.358297 -07 25 29.81083
 2018-Oct-10 05:28     20 56 58.393897 -07 25 29.76179
 2018-Oct-10 05:29     20 56 58.429485 -07 25 29.71258
 2018-Oct-10 05:30     20 56 58.465061 -07 25 29.66319
 2018-Oct-10 05:31     20 56 58.500626 -07 25 29.61364
 2018-Oct-10 05:32     20 56 58.536180 -07 25 29.56392
 2018-Oct-10 05:33     20 56 58.571723 -07 25 29.51402
 2018-Oct-10 05:34     20 56 58.607256 -07 25 29.46396
 2018-Oct-10 05:35     20 56 58.642779 -07 25 29.41372
 2018-Oct-10 05:36     20 56 58.678293 -07 25 29.36332
 2018-Oct-10 05:37     20 56 58.713797 -07 25 29.31274
 2018-Oct-10 05:38     20 56 58.749293 -07 25 29.26200
 2018-Oct-10 05:39     20 56 58.784781 -07 25 29.21108
 2018-Oct-10 05:40     20 56 58.820260 -07 25 29.15999
 2018-Oct-10 05:41     20 56 58.855732 -07 25 29.10873
 2018-Oct-10 05:42     20 56 58.891197 -07 25 29.05730
 2018-Oct-10 05:43     20 56 58.926655 -07 25 29.00570
 2018-Oct-10 05:44     20 56 58.962106 -07 25 28.95393
 2018-Oct-10 05:45     20 56 58.997551 -07 25 28.90199
 2018-Oct-10 05:46     20 56 59.032991 -07 25 28.84987
 2018-Oct-10 05:47     20 56 59.068425 -07 25 28.79759
 2018-Oct-10 05:48     20 56 59.103854 -07 25 28.74513
 2018-Oct-10 05:49     20 56 59.139279 -07 25 28.69250
 2018-Oct-10 05:50     20 56 59.174699 -07 25 28.63971
 2018-Oct-10 05:51     20 56 59.210116 -07 25 28.58674
 2018-Oct-10 05:52     20 56 59.245529 -07 25 28.53359
 2018-Oct-10 05:53     20 56 59.280939 -07 25 28.48028
 2018-Oct-10 05:54     20 56 59.316347 -07 25 28.42680
 2018-Oct-10 05:55     20 56 59.351752 -07 25 28.37314
 2018-Oct-10 05:56     20 56 59.387155 -07 25 28.31931
 2018-Oct-10 05:57     20 56 59.422557 -07 25 28.26531
 2018-Oct-10 05:58     20 56 59.457957 -07 25 28.21114
 2018-Oct-10 05:59     20 56 59.493357 -07 25 28.15680
 2018-Oct-10 06:00     20 56 59.528756 -07 25 28.10228
 2018-Oct-10 06:01     20 56 59.564155 -07 25 28.04760
 2018-Oct-10 06:02     20 56 59.599555 -07 25 27.99274
 2018-Oct-10 06:03     20 56 59.634955 -07 25 27.93771
 2018-Oct-10 06:04     20 56 59.670357 -07 25 27.88251
 2018-Oct-10 06:05  t  20 56 59.705760 -07 25 27.82714
 2018-Oct-10 06:06     20 56 59.741165 -07 25 27.77160
 2018-Oct-10 06:07     20 56 59.776572 -07 25 27.71588
 2018-Oct-10 06:08     20 56 59.811981 -07 25 27.66000
 2018-Oct-10 06:09     20 56 59.847394 -07 25 27.60394
 2018-Oct-10 06:10     20 56 59.882810 -07 25 27.54771
 2018-Oct-10 06:11     20 56 59.918230 -07 25 27.49131
 2018-Oct-10 06:12     20 56 59.953654 -07 25 27.43474
 2018-Oct-10 06:13     20 56 59.989082 -07 25 27.37800
 2018-Oct-10 06:14     20 57 00.024515 -07 25 27.32108
